CS2                     
1 49262U 21088C   26068.73485932  .00018033  00000+0  56178-3 0  9999
2 49262  97.3928 134.2907 0011637  82.3491 277.9072 15.33255930245263
STARLINK-34400          
1 64463U 25130AB  26068.34002696  .00014109  00000+0  48788-3 0  9998
2 64463  53.1599  92.7018 0001759  96.8048 263.3153 15.30180001 40614
